{"type": "FeatureCollection", "features": [ {"type": "Feature", "properties": {"norad_id": 29892, "name": "FENGYUN 1C DEB", "group": "fengyun-1c-debris", "lat": 80.48333896444115, "lon": 22.739438022940405, "alt_km": 877.9054473507213, "timestamp": "2025-12-06T18:50:10.440576+00:00", "meta": {"OBJECT_NAME": "FENGYUN 1C DEB", "OBJECT_ID": "1999-025GN", "EPOCH": "2025-12-05T22:49:37.047936", "MEAN_MOTION": 14.31979587, "ECCENTRICITY": 0.01909723, "INCLINATION": 99.182, "RA_OF_ASC_NODE": 127.0967, "ARG_OF_PERICENTER": 316.9974, "MEAN_ANOMALY": 158.4554, "EPHEMERIS_TYPE": 0, "CLASSIFICATION_TYPE": "U", "NORAD_CAT_ID": 29892, "ELEMENT_SET_NO": 999, "REV_AT_EPOCH": 96552, "BSTAR": 0.0043705307, "MEAN_MOTION_DOT": 0.0001431, "MEAN_MOTION_DDOT": 0}, "tle": {"line1": "1 29892U 99025GN  25339.95112324  .00014310  00000+0  43705-2 0  9993", "line2": "2 29892  99.1820 127.0967 0190972 316.9974 158.4554 14.31979587965523"}}, "geometry": {"type": "Point", "coordinates": [22.739438022940405, 80.48333896444115]}}, {"type": "Feature", "properties": {"norad_id": 29893, "name": "FENGYUN 1C DEB", "group": "fengyun-1c-debris", "lat": -79.29652832658037, "lon": -155.35381299071474, "alt_km": 979.9544077371611, "timestamp": "2025-12-06T18:50:10.440587+00:00", "meta": {"OBJECT_NAME": "FENGYUN 1C DEB", "OBJECT_ID": "1999-025GP", "EPOCH": "2025-12-06T05:32:00.479904", "MEAN_MOTION": 13.79455946, "ECCENTRICITY": 0.01734482, "INCLINATION": 98.5538, "RA_OF_ASC_NODE": 76.9188, "ARG_OF_PERICENTER": 170.9769, "MEAN_ANOMALY": 219.4854, "EPHEMERIS_TYPE": 0, "CLASSIFICATION_TYPE": "U", "NORAD_CAT_ID": 29893, "ELEMENT_SET_NO": 999, "REV_AT_EPOCH": 95050, "BSTAR": 0.00039696322, "MEAN_MOTION_DOT": 4.2e-06, "MEAN_MOTION_DDOT": 0}, "tle": {"line1": "1 29893U 99025GP  25340.23056111  .00000420  00000+0  39696-3 0  9990", "line2": "2 29893  98.5538  76.9188 0173448 170.9769 219.4854 13.79455946950501"}}, "geometry": {"type": "Point", "coordinates": [-155.35381299071474, -79.29652832658037]}}, {"type": "Feature", "properties": {"norad_id": 29894, "name": "FENGYUN 1C DEB", "group": "fengyun-1c-debris", "lat": -73.55665684798541, "lon": -179.43345123600488, "alt_km": 1086.8265284407744, "timestamp": "2025-12-06T18:50:10.440597+00:00", "meta": {"OBJECT_NAME": "FENGYUN 1C DEB", "OBJECT_ID": "1999-025GQ", "EPOCH": "2025-12-06T02:06:18.549216", "MEAN_MOTION": 13.80961169, "ECCENTRICITY": 0.01687826, "INCLINATION": 99.4865, "RA_OF_ASC_NODE": 34.3747, "ARG_OF_PERICENTER": 62.5933, "MEAN_ANOMALY": 330.5092, "EPHEMERIS_TYPE": 0, "CLASSIFICATION_TYPE": "U", "NORAD_CAT_ID": 29894, "ELEMENT_SET_NO": 999, "REV_AT_EPOCH": 94985, "BSTAR": 0.00082853175, "MEAN_MOTION_DOT": 9.3e-06, "MEAN_MOTION_DDOT": 0}, "tle": {"line1": "1 29894U 99025GQ  25340.08771469  .00000930  00000+0  82853-3 0  9993", "line2": "2 29894  99.4865  34.3747 0168782  62.5933 330.5092 13.80961169949854"}}, "geometry": {"type": "Point", "coordinates": [-179.43345123600488, -73.55665684798541]}}, {"type": "Feature", "properties": {"norad_id": 29895, "name": "FENGYUN 1C DEB", "group": "fengyun-1c-debris", "lat": 42.56857298515063, "lon": -82.17978368576982, "alt_km": 1016.3187427532957, "timestamp": "2025-12-06T18:50:10.440607+00:00", "meta": {"OBJECT_NAME": "FENGYUN 1C DEB", "OBJECT_ID": "1999-025GR", "EPOCH": "2025-12-06T06:24:30.717216", "MEAN_MOTION": 14.08144469, "ECCENTRICITY": 0.02994746, "INCLINATION": 99.886, "RA_OF_ASC_NODE": 88.0353, "ARG_OF_PERICENTER": 1.475, "MEAN_ANOMALY": 29.0826, "EPHEMERIS_TYPE": 0, "CLASSIFICATION_TYPE": "U", "NORAD_CAT_ID": 29895, "ELEMENT_SET_NO": 999, "REV_AT_EPOCH": 95433, "BSTAR": 0.0027631071, "MEAN_MOTION_DOT": 7.064e-05, "MEAN_MOTION_DDOT": 0}, "tle": {"line1": "1 29895U 99025GR  25340.26702219  .00007064  00000+0  27631-2 0  9998", "line2": "2 29895  99.8860  88.0353 0299474   1.4750  29.0826 14.08144469954336"}}, "geometry": {"type": "Point", "coordinates": [-82.17978368576982, 42.56857298515063]}}, {"type": "Feature", "properties": {"norad_id": 29896, "name": "FENGYUN 1C DEB", "group": "fengyun-1c-debris", "lat": 35.5194826928708, "lon": -134.12924773832708, "alt_km": 982.1512506629779, "timestamp": "2025-12-06T18:50:10.440617+00:00", "meta": {"OBJECT_NAME": "FENGYUN 1C DEB", "OBJECT_ID": "1999-025GS", "EPOCH": "2025-12-05T04:41:59.655840", "MEAN_MOTION": 13.65354709, "ECCENTRICITY": 0.02394456, "INCLINATION": 99.4225, "RA_OF_ASC_NODE": 231.1335, "ARG_OF_PERICENTER": 121.3297, "MEAN_ANOMALY": 31.1822, "EPHEMERIS_TYPE": 0, "CLASSIFICATION_TYPE": "U", "NORAD_CAT_ID": 29896, "ELEMENT_SET_NO": 999, "REV_AT_EPOCH": 93939, "BSTAR": 0.00081361053, "MEAN_MOTION_DOT": 7.64e-06, "MEAN_MOTION_DDOT": 0}, "tle": {"line1": "1 29896U 99025GS  25339.19582935  .00000764  00000+0  81361-3 0  9991", "line2": "2 29896  99.4225 231.1335 0239445 121.3297  31.1822 13.65354709939390"}}, "geometry": {"type": "Point", "coordinates": [-134.12924773832708, 35.5194826928708]}}, {"type": "Feature", "properties": {"norad_id": 29897, "name": "FENGYUN 1C DEB", "group": "fengyun-1c-debris", "lat": 46.035079541831195, "lon": 34.83138385649673, "alt_km": 835.9384841599858, "timestamp": "2025-12-06T18:50:10.440628+00:00", "meta": {"OBJECT_NAME": "FENGYUN 1C DEB", "OBJECT_ID": "1999-025GT", "EPOCH": "2025-12-06T02:59:50.983296", "MEAN_MOTION": 13.57149864, "ECCENTRICITY": 0.02963686, "INCLINATION": 98.6288, "RA_OF_ASC_NODE": 205.1937, "ARG_OF_PERICENTER": 156.1027, "MEAN_ANOMALY": 355.6871, "EPHEMERIS_TYPE": 0, "CLASSIFICATION_TYPE": "U", "NORAD_CAT_ID": 29897, "ELEMENT_SET_NO": 999, "REV_AT_EPOCH": 92850, "BSTAR": 0.0028234097, "MEAN_MOTION_DOT": 2.641e-05, "MEAN_MOTION_DDOT": 0}, "tle": {"line1": "1 29897U 99025GT  25340.12489564  .00002641  00000+0  28234-2 0  9996", "line2": "2 29897  98.6288 205.1937 0296368 156.1027 355.6871 13.57149864928508"}}, "geometry": {"type": "Point", "coordinates": [34.83138385649673, 46.035079541831195]}}, {"type": "Feature", "properties": {"norad_id": 29898, "name": "FENGYUN 1C DEB", "group": "fengyun-1c-debris", "lat": -79.25998396138833, "lon": 104.31263646208349, "alt_km": 827.9159643975918, "timestamp": "2025-12-06T18:50:10.440638+00:00", "meta": {"OBJECT_NAME": "FENGYUN 1C DEB", "OBJECT_ID": "1999-025GU", "EPOCH": "2025-12-05T17:56:18.124800", "MEAN_MOTION": 13.70247947, "ECCENTRICITY": 0.04273428, "INCLINATION": 98.222, "RA_OF_ASC_NODE": 333.0862, "ARG_OF_PERICENTER": 208.1947, "MEAN_ANOMALY": 336.1322, "EPHEMERIS_TYPE": 0, "CLASSIFICATION_TYPE": "U", "NORAD_CAT_ID": 29898, "ELEMENT_SET_NO": 999, "REV_AT_EPOCH": 93065, "BSTAR": 0.0036881892, "MEAN_MOTION_DOT": 6.18e-05, "MEAN_MOTION_DDOT": 0}, "tle": {"line1": "1 29898U 99025GU  25339.74743200  .00006180  00000+0  36882-2 0  9993", "line2": "2 29898  98.2220 333.0862 0427342 208.1947 336.1322 13.70247947930656"}}, "geometry": {"type": "Point", "coordinates": [104.31263646208349, -79.25998396138833]}}, {"type": "Feature", "properties": {"norad_id": 29899, "name": "FENGYUN 1C DEB", "group": "fengyun-1c-debris", "lat": -72.70422686240208, "lon": 166.47382889669166, "alt_km": 1385.7229956926003, "timestamp": "2025-12-06T18:50:10.440648+00:00", "meta": {"OBJECT_NAME": "FENGYUN 1C DEB", "OBJECT_ID": "1999-025GV", "EPOCH": "2025-12-06T04:51:50.219712", "MEAN_MOTION": 13.37489606, "ECCENTRICITY": 0.03536189, "INCLINATION": 98.6608, "RA_OF_ASC_NODE": 136.6718, "ARG_OF_PERICENTER": 95.3857, "MEAN_ANOMALY": 268.7715, "EPHEMERIS_TYPE": 0, "CLASSIFICATION_TYPE": "U", "NORAD_CAT_ID": 29899, "ELEMENT_SET_NO": 999, "REV_AT_EPOCH": 91997, "BSTAR": 0.00030216889, "MEAN_MOTION_DOT": 1.95e-06, "MEAN_MOTION_DDOT": 0}, "tle": {"line1": "1 29899U 99025GV  25340.20266458  .00000195  00000+0  30217-3 0  9999", "line2": "2 29899  98.6608 136.6718 0353618  95.3857 268.7715 13.37489606919979"}}, "geometry": {"type": "Point", "coordinates": [166.47382889669166, -72.70422686240208]}}, {"type": "Feature", "properties": {"norad_id": 29901, "name": "FENGYUN 1C DEB", "group": "fengyun-1c-debris", "lat": -21.788592807099608, "lon": -31.05868670171797, "alt_km": 1169.8895818345736, "timestamp": "2025-12-06T18:50:10.440658+00:00", "meta": {"OBJECT_NAME": "FENGYUN 1C DEB", "OBJECT_ID": "1999-025GX", "EPOCH": "2025-12-06T06:08:19.746240", "MEAN_MOTION": 13.33248167, "ECCENTRICITY": 0.03792427, "INCLINATION": 98.7445, "RA_OF_ASC_NODE": 152.016, "ARG_OF_PERICENTER": 301.5047, "MEAN_ANOMALY": 246.7598, "EPHEMERIS_TYPE": 0, "CLASSIFICATION_TYPE": "U", "NORAD_CAT_ID": 29901, "ELEMENT_SET_NO": 999, "REV_AT_EPOCH": 91832, "BSTAR": 0.00063664242, "MEAN_MOTION_DOT": 4.3e-06, "MEAN_MOTION_DDOT": 0}, "tle": {"line1": "1 29901U 99025GX  25340.25578410  .00000430  00000+0  63664-3 0  9996", "line2": "2 29901  98.7445 152.0160 0379242 301.5047 246.7598 13.33248167918324"}}, "geometry": {"type": "Point", "coordinates": [-31.05868670171797, -21.788592807099608]}}, {"type": "Feature", "properties": {"norad_id": 29904, "name": "FENGYUN 1C DEB", "group": "fengyun-1c-debris", "lat": -15.864964450046553, "lon": -164.31748115572836, "alt_km": 861.696155853836, "timestamp": "2025-12-06T18:50:10.440669+00:00", "meta": {"OBJECT_NAME": "FENGYUN 1C DEB", "OBJECT_ID": "1999-025HA", "EPOCH": "2025-12-06T01:17:45.173184", "MEAN_MOTION": 14.44439493, "ECCENTRICITY": 0.02081527, "INCLINATION": 99.0421, "RA_OF_ASC_NODE": 17.499, "ARG_OF_PERICENTER": 338.5959, "MEAN_ANOMALY": 20.6619, "EPHEMERIS_TYPE": 0, "CLASSIFICATION_TYPE": "U", "NORAD_CAT_ID": 29904, "ELEMENT_SET_NO": 999, "REV_AT_EPOCH": 98967, "BSTAR": 0.00076262522, "MEAN_MOTION_DOT": 3.37e-05, "MEAN_MOTION_DDOT": 0}, "tle": {"line1": "1 29904U 99025HA  25340.05399506  .00003370  00000+0  76263-3 0  9999", "line2": "2 29904  99.0421  17.4990 0208152 338.5959  20.6619 14.44439493989679"}}, "geometry": {"type": "Point", "coordinates": [-164.31748115572836, -15.864964450046553]}}]}